{
    "links": {
        "self": "http://www.neowsapp.com/rest/v1/neo/3265470?api_key=iIulBulltgU6a56xZRHN4H3l9WmuAYTsLGpBGhQ2"
    },
    "id": "3265470",
    "neo_reference_id": "3265470",
    "name": "(2005 AV3)",
    "designation": "2005 AV3",
    "nasa_jpl_url": "http://ssd.jpl.nasa.gov/sbdb.cgi?sstr=3265470",
    "absolute_magnitude_h": 20.2,
    "estimated_diameter": {
        "kilometers": {
            "estimated_diameter_min": 0.2424124811,
            "estimated_diameter_max": 0.5420507863
        },
        "meters": {
            "estimated_diameter_min": 242.4124811008,
            "estimated_diameter_max": 542.0507863358
        },
        "miles": {
            "estimated_diameter_min": 0.1506280858,
            "estimated_diameter_max": 0.3368146392
        },
        "feet": {
            "estimated_diameter_min": 795.3165644948,
            "estimated_diameter_max": 1778.3819018419
        }
    },
    "is_potentially_hazardous_asteroid": false,
    "close_approach_data": [
        {
            "close_approach_date": "2004-09-01",
            "close_approach_date_full": "2004-Sep-01 21:06",
            "epoch_date_close_approach": 1094072760000,
            "relative_velocity": {
                "kilometers_per_second": "13.9452274733",
                "kilometers_per_hour": "50202.8189038804",
                "miles_per_hour": "31194.079335025"
            },
            "miss_distance": {
                "astronomical": "0.2021112083",
                "lunar": "78.6212600287",
                "kilometers": "30235406.264806321",
                "miles": "18787410.2691603898"
            },
            "orbiting_body": "Earth"
        }
    ],
    "orbital_data": {
        "orbit_id": "12",
        "orbit_determination_date": "2017-04-06 09:11:37",
        "first_observation_date": "2005-01-07",
        "last_observation_date": "2005-02-09",
        "data_arc_in_days": 33,
        "observations_used": 32,
        "orbit_uncertainty": "7",
        "minimum_orbit_intersection": ".19611",
        "jupiter_tisserand_invariant": "3.277",
        "epoch_osculation": "2459000.5",
        "eccentricity": ".5843346674635334",
        "semi_major_axis": "2.341760822590738",
        "inclination": "14.25465046509991",
        "ascending_node_longitude": "123.5418831029459",
        "orbital_period": "1308.917369560247",
        "perihelion_distance": ".9733887910430488",
        "perihelion_argument": "268.1634631148206",
        "aphelion_distance": "3.710132854138427",
        "perihelion_time": "2458538.015511911272",
        "mean_anomaly": "127.2000964949213",
        "mean_motion": ".275036460186137",
        "equinox": "J2000",
        "orbit_class": {
            "orbit_class_type": "APO",
            "orbit_class_description": "Near-Earth asteroid orbits which cross the Earth’s orbit similar to that of 1862 Apollo",
            "orbit_class_range": "a (semi-major axis) > 1.0 AU; q (perihelion) < 1.017 AU"
        }
    },
    "is_sentry_object": false
}